{
  "norad_id": 64820,
  "name": "KUIPER-00073",
  "history": [
    {
      "epoch": "2026-04-14T19:38:21.443136Z",
      "apogee_km": 629.9682258044986,
      "perigee_km": 629.0263997528618,
      "latitude_deg": -2.0530531824978182e-05,
      "longitude_deg": 5.736068195027694,
      "height_km": 630.0008778272659,
      "semi_major_axis_km": 7007.63431277868,
      "eccentricity": 6.72e-05,
      "inclination_deg": 51.9005,
      "raan_deg": 143.3147,
      "arg_perigee_deg": 59.0022,
      "mean_anomaly_deg": 301.1006,
      "mean_motion_rev_day": 14.79945138
    },
    {
      "epoch": "2026-04-15T19:56:59.127360Z",
      "apogee_km": 629.9764951768166,
      "perigee_km": 629.0010336704081,
      "latitude_deg": 2.1911794726692577e-05,
      "longitude_deg": -4.399209805873865,
      "height_km": 629.9748183003585,
      "semi_major_axis_km": 7007.625764423612,
      "eccentricity": 6.96e-05,
      "inclination_deg": 51.8996,
      "raan_deg": 138.8348,
      "arg_perigee_deg": 57.7976,
      "mean_anomaly_deg": 302.3054,
      "mean_motion_rev_day": 14.79947846
    },
    {
      "epoch": "2026-04-16T18:38:23.125920Z",
      "apogee_km": 629.9920944698679,
      "perigee_km": 629.0334479811645,
      "latitude_deg": -7.0263538563701395e-06,
      "longitude_deg": 10.13833026086499,
      "height_km": 629.9227208204131,
      "semi_major_axis_km": 7007.649771225516,
      "eccentricity": 6.84e-05,
      "inclination_deg": 51.8998,
      "raan_deg": 134.6542,
      "arg_perigee_deg": 45.4645,
      "mean_anomaly_deg": 314.6373,
      "mean_motion_rev_day": 14.79940241
    },
    {
      "epoch": "2026-04-17T18:57:02.885472Z",
      "apogee_km": 630.2053127414702,
      "perigee_km": 628.9025829942611,
      "latitude_deg": 2.177863911336126e-05,
      "longitude_deg": -0.004529853924882785,
      "height_km": 630.0832228271305,
      "semi_major_axis_km": 7007.690947867865,
      "eccentricity": 9.295e-05,
      "inclination_deg": 51.9025,
      "raan_deg": 130.1754,
      "arg_perigee_deg": 70.5748,
      "mean_anomaly_deg": 289.5315,
      "mean_motion_rev_day": 14.79927197
    },
    {
      "epoch": "2026-04-18T17:38:27.151008Z",
      "apogee_km": 630.0510740445998,
      "perigee_km": 629.0559819896216,
      "latitude_deg": -3.096008006177241e-05,
      "longitude_deg": 14.531474639919752,
      "height_km": 630.0695268786446,
      "semi_major_axis_km": 7007.69052801711,
      "eccentricity": 7.1e-05,
      "inclination_deg": 51.9007,
      "raan_deg": 125.9944,
      "arg_perigee_deg": 62.4615,
      "mean_anomaly_deg": 297.6419,
      "mean_motion_rev_day": 14.7992733
    },
    {
      "epoch": "2026-04-19T17:57:07.307136Z",
      "apogee_km": 630.4460331536502,
      "perigee_km": 628.7319433769217,
      "latitude_deg": 5.530877372099609e-06,
      "longitude_deg": 4.38636131691031,
      "height_km": 630.0099976927675,
      "semi_major_axis_km": 7007.725988265286,
      "eccentricity": 0.0001223,
      "inclination_deg": 51.8991,
      "raan_deg": 121.515,
      "arg_perigee_deg": 67.7732,
      "mean_anomaly_deg": 292.336,
      "mean_motion_rev_day": 14.79916097
    },
    {
      "epoch": "2026-04-20T06:55:03.994752Z",
      "apogee_km": 630.5327415628353,
      "perigee_km": 628.6000169708341,
      "latitude_deg": 6.300132154928125e-05,
      "longitude_deg": 166.9785224912975,
      "height_km": 630.0939525573607,
      "semi_major_axis_km": 7007.703379266834,
      "eccentricity": 0.0001379,
      "inclination_deg": 51.8995,
      "raan_deg": 119.1258,
      "arg_perigee_deg": 77.0002,
      "mean_anomaly_deg": 283.1115,
      "mean_motion_rev_day": 14.79923259
    },
    {
      "epoch": "2026-04-21T16:57:10.671264Z",
      "apogee_km": 630.0457448729294,
      "perigee_km": 629.0478507001235,
      "latitude_deg": 1.578992728114028e-05,
      "longitude_deg": 8.782287949607728,
      "height_km": 630.0769214070971,
      "semi_major_axis_km": 7007.683797786526,
      "eccentricity": 7.12e-05,
      "inclination_deg": 51.8989,
      "raan_deg": 112.8552,
      "arg_perigee_deg": 64.3858,
      "mean_anomaly_deg": 295.7178,
      "mean_motion_rev_day": 14.79929462
    },
    {
      "epoch": "2026-04-22T17:15:50.138784Z",
      "apogee_km": 630.1059116322685,
      "perigee_km": 629.0141124377933,
      "latitude_deg": -8.998892645273873e-06,
      "longitude_deg": -1.3596976806716419,
      "height_km": 630.0503590798523,
      "semi_major_axis_km": 7007.697012035031,
      "eccentricity": 7.79e-05,
      "inclination_deg": 51.8996,
      "raan_deg": 108.3761,
      "arg_perigee_deg": 62.0938,
      "mean_anomaly_deg": 298.0103,
      "mean_motion_rev_day": 14.79925276
    },
    {
      "epoch": "2026-04-23T02:59:17.724480Z",
      "apogee_km": 630.1116591779501,
      "perigee_km": 628.9981369353491,
      "latitude_deg": -6.98366775585648e-06,
      "longitude_deg": -149.4156014282399,
      "height_km": 630.0569782396664,
      "semi_major_axis_km": 7007.691898056649,
      "eccentricity": 7.945e-05,
      "inclination_deg": 51.8999,
      "raan_deg": 106.5845,
      "arg_perigee_deg": 64.0352,
      "mean_anomaly_deg": 296.0692,
      "mean_motion_rev_day": 14.79926896
    },
    {
      "epoch": "2026-04-24T16:15:53.147808Z",
      "apogee_km": 630.1351927159412,
      "perigee_km": 628.941084872291,
      "latitude_deg": -2.288552930740349e-05,
      "longitude_deg": 3.0374950811713255,
      "height_km": 630.0260072939889,
      "semi_major_axis_km": 7007.675138794116,
      "eccentricity": 8.52e-05,
      "inclination_deg": 51.9004,
      "raan_deg": 99.7161,
      "arg_perigee_deg": 64.4019,
      "mean_anomaly_deg": 295.7031,
      "mean_motion_rev_day": 14.79932205
    },
    {
      "epoch": "2026-04-25T08:28:18.693696Z",
      "apogee_km": 630.1289587667634,
      "perigee_km": 628.9040209367377,
      "latitude_deg": 2.564373880886304e-06,
      "longitude_deg": 116.27917163198227,
      "height_km": 630.002853406662,
      "semi_major_axis_km": 7007.65348985175,
      "eccentricity": 8.74e-05,
      "inclination_deg": 51.9006,
      "raan_deg": 96.7298,
      "arg_perigee_deg": 64.9365,
      "mean_anomaly_deg": 295.1688,
      "mean_motion_rev_day": 14.79939063
    },
    {
      "epoch": "2026-04-26T15:15:55.044000Z",
      "apogee_km": 630.1293729807503,
      "perigee_km": 628.8651957558495,
      "latitude_deg": 2.7202026537449018e-05,
      "longitude_deg": 7.439290302174131,
      "height_km": 629.9998953479522,
      "semi_major_axis_km": 7007.6342843683,
      "eccentricity": 9.02e-05,
      "inclination_deg": 51.9001,
      "raan_deg": 91.056,
      "arg_perigee_deg": 67.3812,
      "mean_anomaly_deg": 292.7246,
      "mean_motion_rev_day": 14.79945147
    },
    {
      "epoch": "2026-04-27T15:34:32.672064Z",
      "apogee_km": 630.112769966744,
      "perigee_km": 628.8415887546071,
      "latitude_deg": 3.448388719294991e-05,
      "longitude_deg": -2.695781680811871,
      "height_km": 629.9695163714414,
      "semi_major_axis_km": 7007.614179360675,
      "eccentricity": 9.07e-05,
      "inclination_deg": 51.9002,
      "raan_deg": 86.5761,
      "arg_perigee_deg": 66.5053,
      "mean_anomaly_deg": 293.6005,
      "mean_motion_rev_day": 14.79951516
    },
    {
      "epoch": "2026-04-28T20:44:54.407040Z",
      "apogee_km": 630.5307983213561,
      "perigee_km": 628.4803621023857,
      "latitude_deg": -2.4518105561506915e-05,
      "longitude_deg": -86.85906957904216,
      "height_km": 630.0122013035785,
      "semi_major_axis_km": 7007.642580211871,
      "eccentricity": 0.0001463,
      "inclination_deg": 51.9013,
      "raan_deg": 81.2015,
      "arg_perigee_deg": 76.5515,
      "mean_anomaly_deg": 283.561,
      "mean_motion_rev_day": 14.79942519
    },
    {
      "epoch": "2026-04-29T06:28:22.194048Z",
      "apogee_km": 630.232054447838,
      "perigee_km": 628.8599501159906,
      "latitude_deg": -3.325804737927476e-05,
      "longitude_deg": 125.0859782591046,
      "height_km": 630.0697269493363,
      "semi_major_axis_km": 7007.683002281914,
      "eccentricity": 9.79e-05,
      "inclination_deg": 51.9029,
      "raan_deg": 79.4117,
      "arg_perigee_deg": 71.1052,
      "mean_anomaly_deg": 289.0016,
      "mean_motion_rev_day": 14.79929714
    },
    {
      "epoch": "2026-04-30T13:15:59.344416Z",
      "apogee_km": 630.1880790124369,
      "perigee_km": 628.9037108914517,
      "latitude_deg": -3.659222461289315e-05,
      "longitude_deg": 16.241131998491557,
      "height_km": 630.172161347841,
      "semi_major_axis_km": 7007.682894951944,
      "eccentricity": 9.164e-05,
      "inclination_deg": 51.9013,
      "raan_deg": 73.7363,
      "arg_perigee_deg": 79.2771,
      "mean_anomaly_deg": 280.8294,
      "mean_motion_rev_day": 14.79929748
    },
    {
      "epoch": "2026-05-02T02:32:34.176768Z",
      "apogee_km": 630.1708928751641,
      "perigee_km": 628.8422436546207,
      "latitude_deg": -4.700938283719624e-06,
      "longitude_deg": 168.69683529730574,
      "height_km": 630.1299067768502,
      "semi_major_axis_km": 7007.643568264892,
      "eccentricity": 9.48e-05,
      "inclination_deg": 51.901,
      "raan_deg": 66.868,
      "arg_perigee_deg": 79.3881,
      "mean_anomaly_deg": 280.7188,
      "mean_motion_rev_day": 14.79942206
    },
    {
      "epoch": "2026-05-03T20:40:52.531968Z",
      "apogee_km": 630.377937033395,
      "perigee_km": 628.7101089499238,
      "latitude_deg": 3.137223768854037e-05,
      "longitude_deg": -112.87298506956145,
      "height_km": 630.3243261109033,
      "semi_major_axis_km": 7007.681022991659,
      "eccentricity": 0.000119,
      "inclination_deg": 51.904,
      "raan_deg": 59.1052,
      "arg_perigee_deg": 92.3822,
      "mean_anomaly_deg": 267.7277,
      "mean_motion_rev_day": 14.79930341
    }
  ]
}